{
    "links": {
        "self": "http://www.neowsapp.com/rest/v1/neo/54091652?api_key=iIulBulltgU6a56xZRHN4H3l9WmuAYTsLGpBGhQ2"
    },
    "id": "54091652",
    "neo_reference_id": "54091652",
    "name": "(2020 WC2)",
    "designation": "2020 WC2",
    "nasa_jpl_url": "http://ssd.jpl.nasa.gov/sbdb.cgi?sstr=54091652",
    "absolute_magnitude_h": 24.984,
    "estimated_diameter": {
        "kilometers": {
            "estimated_diameter_min": 0.026776572,
            "estimated_diameter_max": 0.0598742352
        },
        "meters": {
            "estimated_diameter_min": 26.7765719863,
            "estimated_diameter_max": 59.8742351657
        },
        "miles": {
            "estimated_diameter_min": 0.0166381853,
            "estimated_diameter_max": 0.0372041134
        },
        "feet": {
            "estimated_diameter_min": 87.8496484355,
            "estimated_diameter_max": 196.4377857012
        }
    },
    "is_potentially_hazardous_asteroid": false,
    "close_approach_data": [
        {
            "close_approach_date": "2005-11-02",
            "close_approach_date_full": "2005-Nov-02 10:41",
            "epoch_date_close_approach": 1130928060000,
            "relative_velocity": {
                "kilometers_per_second": "23.2097466818",
                "kilometers_per_hour": "83555.0880546042",
                "miles_per_hour": "51917.8823525956"
            },
            "miss_distance": {
                "astronomical": "0.0233300095",
                "lunar": "9.0753736955",
                "kilometers": "3490119.728279765",
                "miles": "2168659.837060157"
            },
            "orbiting_body": "Mars"
        },
        {
            "close_approach_date": "2010-06-13",
            "close_approach_date_full": "2010-Jun-13 02:46",
            "epoch_date_close_approach": 1276397160000,
            "relative_velocity": {
                "kilometers_per_second": "6.6248294842",
                "kilometers_per_hour": "23849.3861431214",
                "miles_per_hour": "14819.0810732078"
            },
            "miss_distance": {
                "astronomical": "1.4858562548",
                "lunar": "577.9980831172",
                "kilometers": "222280930.844257276",
                "miles": "138118965.7650753688"
            },
            "orbiting_body": "Juptr"
        },
        {
            "close_approach_date": "2020-11-29",
            "close_approach_date_full": "2020-Nov-29 14:14",
            "epoch_date_close_approach": 1606659240000,
            "relative_velocity": {
                "kilometers_per_second": "22.4459297189",
                "kilometers_per_hour": "80805.34698799",
                "miles_per_hour": "50209.3001881763"
            },
            "miss_distance": {
                "astronomical": "0.0366230048",
                "lunar": "14.2463488672",
                "kilometers": "5478723.511079776",
                "miles": "3404320.9293258688"
            },
            "orbiting_body": "Earth"
        },
        {
            "close_approach_date": "2022-05-21",
            "close_approach_date_full": "2022-May-21 05:27",
            "epoch_date_close_approach": 1653110820000,
            "relative_velocity": {
                "kilometers_per_second": "7.3846735302",
                "kilometers_per_hour": "26584.8247086906",
                "miles_per_hour": "16518.7762196861"
            },
            "miss_distance": {
                "astronomical": "1.6413512437",
                "lunar": "638.4856337993",
                "kilometers": "245542649.979370919",
                "miles": "152573127.7872359222"
            },
            "orbiting_body": "Juptr"
        }
    ],
    "orbital_data": {
        "orbit_id": "5",
        "orbit_determination_date": "2020-11-28 05:19:40",
        "first_observation_date": "2020-11-19",
        "last_observation_date": "2020-11-28",
        "data_arc_in_days": 9,
        "observations_used": 35,
        "orbit_uncertainty": "9",
        "minimum_orbit_intersection": ".0133745",
        "jupiter_tisserand_invariant": "3.326",
        "epoch_osculation": "2459173.5",
        "eccentricity": ".7565337899650832",
        "semi_major_axis": "2.081849501041844",
        "inclination": "2.574138016968785",
        "ascending_node_longitude": "228.1115568974327",
        "orbital_period": "1097.166207531756",
        "perihelion_distance": ".5068600078817401",
        "perihelion_argument": "295.0469703792257",
        "aphelion_distance": "3.656838994201947",
        "perihelion_time": "2459228.346338448781",
        "mean_anomaly": "342.003928205208",
        "mean_motion": ".3281180166949137",
        "equinox": "J2000",
        "orbit_class": {
            "orbit_class_type": "APO",
            "orbit_class_description": "Near-Earth asteroid orbits which cross the Earth’s orbit similar to that of 1862 Apollo",
            "orbit_class_range": "a (semi-major axis) > 1.0 AU; q (perihelion) < 1.017 AU"
        }
    },
    "is_sentry_object": false
}